{"fetched_at":"2026-07-18T06:28:15.748Z","source":"https://celestrak.org/NORAD/elements/gp.php?NAME=KINEIS&FORMAT=JSON","constellation":"kineis","records":[{"OBJECT_NAME":"KINEIS-2D","OBJECT_ID":"2025-028C","EPOCH":"2026-07-17T21:40:26.613120","CLASSIFICATION_TYPE":"U","MEAN_MOTION":14.75773531,"ECCENTRICITY":0.00047817,"INCLINATION":97.9271,"RA_OF_ASC_NODE":250.7564,"ARG_OF_PERICENTER":103.8497,"MEAN_ANOMALY":256.3245,"EPHEMERIS_TYPE":0,"NORAD_CAT_ID":62930,"ELEMENT_SET_NO":999,"REV_AT_EPOCH":7724,"BSTAR":0.000117989,"MEAN_MOTION_DOT":0.00000758,"MEAN_MOTION_DDOT":0},{"OBJECT_NAME":"KINEIS-2E","OBJECT_ID":"2025-028D","EPOCH":"2026-07-17T13:46:38.421120","CLASSIFICATION_TYPE":"U","MEAN_MOTION":14.770909,"ECCENTRICITY":0.0002116,"INCLINATION":97.894,"RA_OF_ASC_NODE":249.5592,"ARG_OF_PERICENTER":93.1632,"MEAN_ANOMALY":266.9821,"EPHEMERIS_TYPE":0,"NORAD_CAT_ID":62931,"ELEMENT_SET_NO":999,"REV_AT_EPOCH":7726,"BSTAR":0.000095584,"MEAN_MOTION_DOT":0.00000625,"MEAN_MOTION_DDOT":0},{"OBJECT_NAME":"KINEIS-2A","OBJECT_ID":"2025-028E","EPOCH":"2026-07-17T09:11:23.362656","CLASSIFICATION_TYPE":"U","MEAN_MOTION":14.73453639,"ECCENTRICITY":0.000594,"INCLINATION":98.1287,"RA_OF_ASC_NODE":253.8162,"ARG_OF_PERICENTER":78.5759,"MEAN_ANOMALY":281.6115,"EPHEMERIS_TYPE":0,"NORAD_CAT_ID":62932,"ELEMENT_SET_NO":999,"REV_AT_EPOCH":7705,"BSTAR":0.00010173,"MEAN_MOTION_DOT":0.00000609,"MEAN_MOTION_DDOT":0},{"OBJECT_NAME":"KINEIS-2B","OBJECT_ID":"2025-028G","EPOCH":"2026-07-17T21:41:07.540800","CLASSIFICATION_TYPE":"U","MEAN_MOTION":14.73454841,"ECCENTRICITY":0.00047486,"INCLINATION":97.9653,"RA_OF_ASC_NODE":251.2067,"ARG_OF_PERICENTER":67.7248,"MEAN_ANOMALY":292.4463,"EPHEMERIS_TYPE":0,"NORAD_CAT_ID":62934,"ELEMENT_SET_NO":999,"REV_AT_EPOCH":7718,"BSTAR":0.000098217136,"MEAN_MOTION_DOT":0.00000588,"MEAN_MOTION_DDOT":0},{"OBJECT_NAME":"KINEIS-4E","OBJECT_ID":"2025-056A","EPOCH":"2026-07-17T21:36:05.852736","CLASSIFICATION_TYPE":"U","MEAN_MOTION":14.72307207,"ECCENTRICITY":0.00029232,"INCLINATION":97.9071,"RA_OF_ASC_NODE":321.9484,"ARG_OF_PERICENTER":81.5956,"MEAN_ANOMALY":278.5583,"EPHEMERIS_TYPE":0,"NORAD_CAT_ID":63300,"ELEMENT_SET_NO":999,"REV_AT_EPOCH":7164,"BSTAR":0.00012110696,"MEAN_MOTION_DOT":0.00000717,"MEAN_MOTION_DDOT":0},{"OBJECT_NAME":"KINEIS-4C","OBJECT_ID":"2025-056B","EPOCH":"2026-07-17T21:53:52.084032","CLASSIFICATION_TYPE":"U","MEAN_MOTION":14.72329131,"ECCENTRICITY":0.00030004,"INCLINATION":97.9124,"RA_OF_ASC_NODE":322.2113,"ARG_OF_PERICENTER":201.7656,"MEAN_ANOMALY":158.3425,"EPHEMERIS_TYPE":0,"NORAD_CAT_ID":63301,"ELEMENT_SET_NO":999,"REV_AT_EPOCH":7165,"BSTAR":0.00012466899,"MEAN_MOTION_DOT":0.0000074,"MEAN_MOTION_DDOT":0},{"OBJECT_NAME":"KINEIS-4D","OBJECT_ID":"2025-056C","EPOCH":"2026-07-17T21:58:21.232992","CLASSIFICATION_TYPE":"U","MEAN_MOTION":14.72225879,"ECCENTRICITY":0.00017273,"INCLINATION":97.9044,"RA_OF_ASC_NODE":322.1849,"ARG_OF_PERICENTER":203.6525,"MEAN_ANOMALY":156.4603,"EPHEMERIS_TYPE":0,"NORAD_CAT_ID":63302,"ELEMENT_SET_NO":999,"REV_AT_EPOCH":7165,"BSTAR":0.00012487274,"MEAN_MOTION_DOT":0.0000074,"MEAN_MOTION_DDOT":0},{"OBJECT_NAME":"KINEIS-4A","OBJECT_ID":"2025-056D","EPOCH":"2026-07-17T21:11:30.221952","CLASSIFICATION_TYPE":"U","MEAN_MOTION":14.72287926,"ECCENTRICITY":0.00022793,"INCLINATION":97.9139,"RA_OF_ASC_NODE":322.1075,"ARG_OF_PERICENTER":147.8389,"MEAN_ANOMALY":212.2958,"EPHEMERIS_TYPE":0,"NORAD_CAT_ID":63303,"ELEMENT_SET_NO":999,"REV_AT_EPOCH":7164,"BSTAR":0.00011619139,"MEAN_MOTION_DOT":0.00000686,"MEAN_MOTION_DDOT":0},{"OBJECT_NAME":"KINEIS-4B","OBJECT_ID":"2025-056E","EPOCH":"2026-07-17T20:46:32.317248","CLASSIFICATION_TYPE":"U","MEAN_MOTION":14.72332602,"ECCENTRICITY":0.00055246,"INCLINATION":97.9151,"RA_OF_ASC_NODE":322.1485,"ARG_OF_PERICENTER":184.2486,"MEAN_ANOMALY":175.8676,"EPHEMERIS_TYPE":0,"NORAD_CAT_ID":63304,"ELEMENT_SET_NO":999,"REV_AT_EPOCH":7163,"BSTAR":0.00011449724,"MEAN_MOTION_DOT":0.00000676,"MEAN_MOTION_DDOT":0}]}
