KINEIS-2D               
1 62930U 25028C   26198.90308580  .00000758  00000+0  11799-3 0  9995
2 62930  97.9271 250.7564 0004781 103.8497 256.3245 14.75773531 77248
KINEIS-2E               
1 62931U 25028D   26198.57405580  .00000625  00000+0  95584-4 0  9995
2 62931  97.8940 249.5592 0002116  93.1632 266.9821 14.77090900 77263
KINEIS-2A               
1 62932U 25028E   26198.38290929  .00000609  00000+0  10173-3 0  9996
2 62932  98.1287 253.8162 0005940  78.5759 281.6115 14.73453639 77053
KINEIS-2B               
1 62934U 25028G   26198.90355950  .00000588  00000+0  98217-4 0  9994
2 62934  97.9653 251.2067 0004748  67.7248 292.4463 14.73454841 77189
KINEIS-4E               
1 63300U 25056A   26198.90006774  .00000717  00000+0  12111-3 0  9992
2 63300  97.9071 321.9484 0002923  81.5956 278.5583 14.72307207 71647
KINEIS-4C               
1 63301U 25056B   26198.91240838  .00000740  00000+0  12467-3 0  9995
2 63301  97.9124 322.2113 0003000 201.7656 158.3425 14.72329131 71651
KINEIS-4D               
1 63302U 25056C   26198.91552353  .00000740  00000+0  12487-3 0  9996
2 63302  97.9044 322.1849 0001727 203.6525 156.4603 14.72225879 71659
KINEIS-4A               
1 63303U 25056D   26198.88298868  .00000686  00000+0  11619-3 0  9996
2 63303  97.9139 322.1075 0002279 147.8389 212.2958 14.72287926 71640
KINEIS-4B               
1 63304U 25056E   26198.86565182  .00000676  00000+0  11450-3 0  9993
2 63304  97.9151 322.1485 0005524 184.2486 175.8676 14.72332602 71631
